TRANSPORTER-11 OBJECT A 
1 60468U 24149A   26068.74646182  .00010774  00000+0  36054-3 0  9993
2 60468  97.3780 149.0949 0003110 191.0010 169.1164 15.31141332 86830
STARLINK-33702          
1 63591U 25076Y   26068.03869102  .00045868  00000+0  16650-2 0  9995
2 63591  43.0039 325.1251 0001687 264.3983  95.6676 15.27600182 51738
